{
    "links": {
        "self": "http://www.neowsapp.com/rest/v1/neo/3638381?api_key=iIulBulltgU6a56xZRHN4H3l9WmuAYTsLGpBGhQ2"
    },
    "id": "3638381",
    "neo_reference_id": "3638381",
    "name": "(2013 JM22)",
    "designation": "2013 JM22",
    "nasa_jpl_url": "http://ssd.jpl.nasa.gov/sbdb.cgi?sstr=3638381",
    "absolute_magnitude_h": 23.3,
    "estimated_diameter": {
        "kilometers": {
            "estimated_diameter_min": 0.058150704,
            "estimated_diameter_max": 0.130028927
        },
        "meters": {
            "estimated_diameter_min": 58.1507039646,
            "estimated_diameter_max": 130.0289270043
        },
        "miles": {
            "estimated_diameter_min": 0.0361331611,
            "estimated_diameter_max": 0.0807962044
        },
        "feet": {
            "estimated_diameter_min": 190.7831555951,
            "estimated_diameter_max": 426.6041048727
        }
    },
    "is_potentially_hazardous_asteroid": false,
    "close_approach_data": [
        {
            "close_approach_date": "1980-11-01",
            "close_approach_date_full": "1980-Nov-01 04:09",
            "epoch_date_close_approach": 341899740000,
            "relative_velocity": {
                "kilometers_per_second": "8.0680906935",
                "kilometers_per_hour": "29045.126496735",
                "miles_per_hour": "18047.512072374"
            },
            "miss_distance": {
                "astronomical": "1.6923672903",
                "lunar": "658.3308759267",
                "kilometers": "253174541.886551661",
                "miles": "157315365.5178724818"
            },
            "orbiting_body": "Juptr"
        },
        {
            "close_approach_date": "2013-05-16",
            "close_approach_date_full": "2013-May-16 14:12",
            "epoch_date_close_approach": 1368713520000,
            "relative_velocity": {
                "kilometers_per_second": "29.2205530255",
                "kilometers_per_hour": "105193.990891678",
                "miles_per_hour": "65363.4550626651"
            },
            "miss_distance": {
                "astronomical": "0.0202761743",
                "lunar": "7.8874318027",
                "kilometers": "3033272.487028741",
                "miles": "1884788.1246529858"
            },
            "orbiting_body": "Earth"
        },
        {
            "close_approach_date": "2149-08-18",
            "close_approach_date_full": "2149-Aug-18 01:40",
            "epoch_date_close_approach": 5668537200000,
            "relative_velocity": {
                "kilometers_per_second": "26.7322643252",
                "kilometers_per_hour": "96236.1515707744",
                "miles_per_hour": "59797.4020690737"
            },
            "miss_distance": {
                "astronomical": "0.1119003257",
                "lunar": "43.5292266973",
                "kilometers": "16740050.377026259",
                "miles": "10401784.9671060142"
            },
            "orbiting_body": "Venus"
        }
    ],
    "orbital_data": {
        "orbit_id": "16",
        "orbit_determination_date": "2017-04-06 08:45:51",
        "first_observation_date": "2013-05-12",
        "last_observation_date": "2013-05-16",
        "data_arc_in_days": 4,
        "observations_used": 74,
        "orbit_uncertainty": "8",
        "minimum_orbit_intersection": ".0192565",
        "jupiter_tisserand_invariant": "2.997",
        "epoch_osculation": "2456426.5",
        "eccentricity": ".8431350112762389",
        "semi_major_axis": "2.265704272397662",
        "inclination": "9.015857944294421",
        "ascending_node_longitude": "62.24111236955014",
        "orbital_period": "1245.670737126773",
        "perihelion_distance": ".3554096751410365",
        "perihelion_argument": "287.6263657203561",
        "aphelion_distance": "4.175998869654286",
        "perihelion_time": "2456472.322307886531",
        "mean_anomaly": "346.75731046135",
        "mean_motion": ".2890009287930817",
        "equinox": "J2000",
        "orbit_class": {
            "orbit_class_type": "APO",
            "orbit_class_description": "Near-Earth asteroid orbits which cross the Earth’s orbit similar to that of 1862 Apollo",
            "orbit_class_range": "a (semi-major axis) > 1.0 AU; q (perihelion) < 1.017 AU"
        }
    },
    "is_sentry_object": false
}